[{"OBJECT_NAME":"STARLINK-32210","OBJECT_ID":"2024-150M","EPOCH":"2026-03-09T22:35:03.865344","MEAN_MOTION":15.30190926,"ECCENTRICITY":0.00011019,"INCLINATION":53.1597,"RA_OF_ASC_NODE":305.5858,"ARG_OF_PERICENTER":77.9257,"MEAN_ANOMALY":282.1867,"EPHEMERIS_TYPE":0,"CLASSIFICATION_TYPE":"U","NORAD_CAT_ID":60594,"ELEMENT_SET_NO":999,"REV_AT_EPOCH":8808,"BSTAR":3.589952e-5,"MEAN_MOTION_DOT":7.04e-6,"MEAN_MOTION_DDOT":0},{"OBJECT_NAME":"CZ-6A DEB","OBJECT_ID":"2022-151QB","EPOCH":"2026-03-08T18:03:47.471328","MEAN_MOTION":15.32168285,"ECCENTRICITY":0.00205863,"INCLINATION":98.6246,"RA_OF_ASC_NODE":151.4486,"ARG_OF_PERICENTER":181.9757,"MEAN_ANOMALY":178.1404,"EPHEMERIS_TYPE":0,"CLASSIFICATION_TYPE":"U","NORAD_CAT_ID":54890,"ELEMENT_SET_NO":999,"REV_AT_EPOCH":17659,"BSTAR":0.012866954,"MEAN_MOTION_DOT":0.00424465,"MEAN_MOTION_DDOT":0}]
